{
  "type": "FeatureCollection",
  "features": [
    {
      "type": "Feature",
      "geometry": {
        "type": "Point",
        "coordinates": [
          -1.354391,
          50.951299
        ]
      },
      "properties": {
        "site": "Chickenhall",
        "catchment": "ITCHEN",
        "supplier": "Kier Integrated Services Limited",
        "value": 3316666.6666666665,
        "confidence": "medium",
        "url": "kier.co.uk/...444m"
      }
    },
    {
      "type": "Feature",
      "geometry": {
        "type": "Point",
        "coordinates": [
          -1.33205,
          51.05592
        ]
      },
      "properties": {
        "site": "Fullerton",
        "catchment": "TEST",
        "supplier": "Kier Integrated Services Limited",
        "value": 3316666.6666666665,
        "confidence": "medium",
        "url": "kier.co.uk/...444m"
      }
    },
    {
      "type": "Feature",
      "geometry": {
        "type": "Point",
        "coordinates": [
          0.431722,
          51.297323
        ]
      },
      "properties": {
        "site": "Leeds",
        "catchment": "MEDWAY",
        "supplier": "Kier Integrated Services Limited",
        "value": 3316666.6666666665,
        "confidence": "medium",
        "url": "kier.co.uk/...444m"
      }
    },
    {
      "type": "Feature",
      "geometry": {
        "type": "Point",
        "coordinates": [
          0.431722,
          51.297323
        ]
      },
      "properties": {
        "site": "Newnham Valley",
        "catchment": "MEDWAY",
        "supplier": "Kier Integrated Services Limited",
        "value": 3316666.6666666665,
        "confidence": "medium",
        "url": "kier.co.uk/...444m"
      }
    },
    {
      "type": "Feature",
      "geometry": {
        "type": "Point",
        "coordinates": [
          0.431722,
          51.297323
        ]
      },
      "properties": {
        "site": "Paddock Wood",
        "catchment": "MEDWAY",
        "supplier": "Kier Integrated Services Limited",
        "value": 3316666.6666666665,
        "confidence": "medium",
        "url": "kier.co.uk/...444m"
      }
    },
    {
      "type": "Feature",
      "geometry": {
        "type": "Point",
        "coordinates": [
          0.952051,
          51.199617
        ]
      },
      "properties": {
        "site": "Sellindge",
        "catchment": "STOUR",
        "supplier": "Kier Integrated Services Limited",
        "value": 3316666.6666666665,
        "confidence": "medium",
        "url": "kier.co.uk/...444m"
      }
    },
    {
      "type": "Feature",
      "geometry": {
        "type": "Point",
        "coordinates": [
          0.952051,
          51.199617
        ]
      },
      "properties": {
        "site": "Dambridge",
        "catchment": "STOUR",
        "supplier": "Kier Integrated Services Limited",
        "value": 4083333.3333333335,
        "confidence": "medium",
        "url": "theconstructionindex.co.uk/kier-44m"
      }
    },
    {
      "type": "Feature",
      "geometry": {
        "type": "Point",
        "coordinates": [
          0.431722,
          51.297323
        ]
      },
      "properties": {
        "site": "Felbridge",
        "catchment": "MEDWAY",
        "supplier": "Kier Integrated Services Limited",
        "value": 4083333.3333333335,
        "confidence": "medium",
        "url": "theconstructionindex.co.uk/kier-44m"
      }
    },
    {
      "type": "Feature",
      "geometry": {
        "type": "Point",
        "coordinates": [
          0.641181,
          51.164233
        ]
      },
      "properties": {
        "site": "Staplehurst",
        "catchment": "BEULT",
        "supplier": "Kier Integrated Services Limited",
        "value": 4083333.3333333335,
        "confidence": "medium",
        "url": "theconstructionindex.co.uk/kier-44m"
      }
    },
    {
      "type": "Feature",
      "geometry": {
        "type": "Point",
        "coordinates": [
          0.151224,
          51.003151
        ]
      },
      "properties": {
        "site": "Ticehurst",
        "catchment": "ROTHER",
        "supplier": "Kier Integrated Services Limited",
        "value": 4083333.3333333335,
        "confidence": "medium",
        "url": "theconstructionindex.co.uk/kier-44m"
      }
    },
    {
      "type": "Feature",
      "geometry": {
        "type": "Point",
        "coordinates": [
          0.431722,
          51.297323
        ]
      },
      "properties": {
        "site": "Tonbridge",
        "catchment": "MEDWAY",
        "supplier": "Kier Integrated Services Limited",
        "value": 4083333.3333333335,
        "confidence": "medium",
        "url": "theconstructionindex.co.uk/kier-44m"
      }
    },
    {
      "type": "Feature",
      "geometry": {
        "type": "Point",
        "coordinates": [
          0.431722,
          51.297323
        ]
      },
      "properties": {
        "site": "Ulcombe",
        "catchment": "MEDWAY",
        "supplier": "Kier Integrated Services Limited",
        "value": 4083333.3333333335,
        "confidence": "medium",
        "url": "theconstructionindex.co.uk/kier-44m"
      }
    },
    {
      "type": "Feature",
      "geometry": {
        "type": "Point",
        "coordinates": [
          -1.354391,
          50.951299
        ]
      },
      "properties": {
        "site": "Portswood",
        "catchment": "ITCHEN",
        "supplier": "Kier Integrated Services Limited",
        "value": 7900000.0,
        "confidence": "medium",
        "url": "newcivilengineer.com/kier-15.8m"
      }
    },
    {
      "type": "Feature",
      "geometry": {
        "type": "Point",
        "coordinates": [
          -0.872056,
          50.825062
        ]
      },
      "properties": {
        "site": "Thornham",
        "catchment": "CHICHESTER HARBOUR",
        "supplier": "Kier Integrated Services Limited",
        "value": 7900000.0,
        "confidence": "medium",
        "url": "newcivilengineer.com/kier-15.8m"
      }
    },
    {
      "type": "Feature",
      "geometry": {
        "type": "Point",
        "coordinates": [
          -1.33205,
          51.05592
        ]
      },
      "properties": {
        "site": "Testwood",
        "catchment": "TEST",
        "supplier": "COSTAIN LIMITED",
        "value": 32500000.0,
        "confidence": "medium",
        "url": "costain.com/cmdp-65m"
      }
    },
    {
      "type": "Feature",
      "geometry": {
        "type": "Point",
        "coordinates": [
          0.431722,
          51.297323
        ]
      },
      "properties": {
        "site": "Burham",
        "catchment": "MEDWAY",
        "supplier": "COSTAIN LIMITED",
        "value": 32500000.0,
        "confidence": "medium",
        "url": "costain.com/cmdp-65m"
      }
    },
    {
      "type": "Feature",
      "geometry": {
        "type": "Point",
        "coordinates": [
          -0.51187,
          50.945046
        ]
      },
      "properties": {
        "site": "Horsham",
        "catchment": "ARUN",
        "supplier": "COSTAIN LIMITED",
        "value": 31000000.0,
        "confidence": "medium",
        "url": "costain.com/horsham"
      }
    },
    {
      "type": "Feature",
      "geometry": {
        "type": "Point",
        "coordinates": [
          0.017846,
          51.202284
        ]
      },
      "properties": {
        "site": "Lingfield",
        "catchment": "EDEN",
        "supplier": "COSTAIN LIMITED",
        "value": 13800000.0,
        "confidence": "medium",
        "url": "smartwatermagazine.com/lingfield"
      }
    },
    {
      "type": "Feature",
      "geometry": {
        "type": "Point",
        "coordinates": [
          0.219828,
          50.87603
        ]
      },
      "properties": {
        "site": "Hailsham North",
        "catchment": "CUCKMERE",
        "supplier": "COSTAIN LIMITED",
        "value": 15000000.0,
        "confidence": "medium",
        "url": "waterprojectsonline.com/hailsham"
      }
    },
    {
      "type": "Feature",
      "geometry": {
        "type": "Point",
        "coordinates": [
          0.219828,
          50.87603
        ]
      },
      "properties": {
        "site": "Hailsham South",
        "catchment": "CUCKMERE",
        "supplier": "COSTAIN LIMITED",
        "value": 15000000.0,
        "confidence": "medium",
        "url": "waterprojectsonline.com/hailsham"
      }
    },
    {
      "type": "Feature",
      "geometry": {
        "type": "Point",
        "coordinates": [
          1.196556,
          51.36836
        ]
      },
      "properties": {
        "site": "Weatherlees",
        "catchment": "NORTH SEA",
        "supplier": "COSTAIN LIMITED",
        "value": 23333333.333333332,
        "confidence": "medium",
        "url": "edie.net/kent-coast"
      }
    },
    {
      "type": "Feature",
      "geometry": {
        "type": "Point",
        "coordinates": [
          1.196556,
          51.36836
        ]
      },
      "properties": {
        "site": "Margate",
        "catchment": "NORTH SEA",
        "supplier": "COSTAIN LIMITED",
        "value": 23333333.333333332,
        "confidence": "medium",
        "url": "edie.net/kent-coast"
      }
    },
    {
      "type": "Feature",
      "geometry": {
        "type": "Point",
        "coordinates": [
          1.196556,
          51.36836
        ]
      },
      "properties": {
        "site": "Broadstairs",
        "catchment": "NORTH SEA",
        "supplier": "COSTAIN LIMITED",
        "value": 23333333.333333332,
        "confidence": "medium",
        "url": "edie.net/kent-coast"
      }
    },
    {
      "type": "Feature",
      "geometry": {
        "type": "Point",
        "coordinates": [
          -0.211734,
          50.938729
        ]
      },
      "properties": {
        "site": "Cherry Gardens",
        "catchment": "ADUR",
        "supplier": "COSTAIN LIMITED",
        "value": 0.0,
        "confidence": "medium",
        "url": "waterprojectsonline.com/winep"
      }
    },
    {
      "type": "Feature",
      "geometry": {
        "type": "Point",
        "coordinates": [
          -0.211734,
          50.938729
        ]
      },
      "properties": {
        "site": "Scaynes Hill",
        "catchment": "ADUR",
        "supplier": "COSTAIN LIMITED",
        "value": 0.0,
        "confidence": "medium",
        "url": "waterprojectsonline.com/winep"
      }
    },
    {
      "type": "Feature",
      "geometry": {
        "type": "Point",
        "coordinates": [
          0.151224,
          51.003151
        ]
      },
      "properties": {
        "site": "Petersfield",
        "catchment": "ROTHER",
        "supplier": "Galliford Try Construction Limited",
        "value": 250000000.0,
        "confidence": "medium",
        "url": "hanevo.com/galliford-try"
      }
    },
    {
      "type": "Feature",
      "geometry": {
        "type": "Point",
        "coordinates": [
          -1.035783,
          50.836876
        ]
      },
      "properties": {
        "site": "Budds Farm",
        "catchment": "LANGSTONE HARBOUR",
        "supplier": "Galliford Try Construction Limited",
        "value": 0.0,
        "confidence": "medium",
        "url": "hanevo.com/budds-farm"
      }
    },
    {
      "type": "Feature",
      "geometry": {
        "type": "Point",
        "coordinates": [
          -1.55641,
          50.773721
        ]
      },
      "properties": {
        "site": "Boldre",
        "catchment": "LYMINGTON",
        "supplier": "Galliford Try Construction Limited",
        "value": 2500000.0,
        "confidence": "medium",
        "url": "southernwater.co.uk/boldre"
      }
    },
    {
      "type": "Feature",
      "geometry": {
        "type": "Point",
        "coordinates": [
          0.952051,
          51.199617
        ]
      },
      "properties": {
        "site": "Ashford",
        "catchment": "STOUR",
        "supplier": "Barhale Limited",
        "value": 12000000.0,
        "confidence": "medium",
        "url": "barhale.co.uk/ashford"
      }
    },
    {
      "type": "Feature",
      "geometry": {
        "type": "Point",
        "coordinates": [
          -0.211734,
          50.938729
        ]
      },
      "properties": {
        "site": "Goddards Green",
        "catchment": "ADUR",
        "supplier": "Edina Group",
        "value": 0.0,
        "confidence": "medium",
        "url": "edina.eu/southern-water-chp"
      }
    },
    {
      "type": "Feature",
      "geometry": {
        "type": "Point",
        "coordinates": [
          -1.035783,
          50.836876
        ]
      },
      "properties": {
        "site": "Budds Farm",
        "catchment": "LANGSTONE HARBOUR",
        "supplier": "Edina Group",
        "value": 0.0,
        "confidence": "medium",
        "url": "edina.eu/southern-water-chp"
      }
    },
    {
      "type": "Feature",
      "geometry": {
        "type": "Point",
        "coordinates": [
          -1.330391,
          50.848213
        ]
      },
      "properties": {
        "site": "Millbrook",
        "catchment": "SOUTHAMPTON WATER",
        "supplier": "Edina Group",
        "value": 0.0,
        "confidence": "medium",
        "url": "edina.eu/southern-water-chp"
      }
    },
    {
      "type": "Feature",
      "geometry": {
        "type": "Point",
        "coordinates": [
          -1.33205,
          51.05592
        ]
      },
      "properties": {
        "site": "Fullerton",
        "catchment": "TEST",
        "supplier": "Edina Group",
        "value": 0.0,
        "confidence": "medium",
        "url": "edina.eu/southern-water-chp"
      }
    },
    {
      "type": "Feature",
      "geometry": {
        "type": "Point",
        "coordinates": [
          0.371807,
          51.444644
        ]
      },
      "properties": {
        "site": "Gravesend",
        "catchment": "THAMES",
        "supplier": "Edina Group",
        "value": 0.0,
        "confidence": "medium",
        "url": "edina.eu/southern-water-chp"
      }
    },
    {
      "type": "Feature",
      "geometry": {
        "type": "Point",
        "coordinates": [
          -0.51187,
          50.945046
        ]
      },
      "properties": {
        "site": "Littlehampton",
        "catchment": "ARUN",
        "supplier": "MID KENT ELECTRICAL ENGINEERING COMPANY LIMITED",
        "value": 85000.0,
        "confidence": "medium",
        "url": "waterbriefing.org/littlehampton"
      }
    },
    {
      "type": "Feature",
      "geometry": {
        "type": "Point",
        "coordinates": [
          -1.285568,
          50.771191
        ]
      },
      "properties": {
        "site": "Peel Common",
        "catchment": "SOLENT",
        "supplier": "Trant Engineering",
        "value": 0.0,
        "confidence": "medium",
        "url": "trant.co.uk/peel-common"
      }
    },
    {
      "type": "Feature",
      "geometry": {
        "type": "Point",
        "coordinates": [
          -1.035783,
          50.836876
        ]
      },
      "properties": {
        "site": "Budds Farm",
        "catchment": "LANGSTONE HARBOUR",
        "supplier": "",
        "value": 34666666.666666664,
        "confidence": "medium",
        "url": "southernwater.co.uk/portsmouth-170m"
      }
    },
    {
      "type": "Feature",
      "geometry": {
        "type": "Point",
        "coordinates": [
          -1.129927,
          50.823045
        ]
      },
      "properties": {
        "site": "Portsmouth",
        "catchment": "PORTSMOUTH HARBOUR",
        "supplier": "",
        "value": 34666666.666666664,
        "confidence": "medium",
        "url": "southernwater.co.uk/portsmouth-170m"
      }
    },
    {
      "type": "Feature",
      "geometry": {
        "type": "Point",
        "coordinates": [
          -1.285568,
          50.771191
        ]
      },
      "properties": {
        "site": "Gosport",
        "catchment": "SOLENT",
        "supplier": "",
        "value": 34666666.666666664,
        "confidence": "medium",
        "url": "southernwater.co.uk/portsmouth-170m"
      }
    },
    {
      "type": "Feature",
      "geometry": {
        "type": "Point",
        "coordinates": [
          -1.087534,
          50.874746
        ]
      },
      "properties": {
        "site": "Fareham",
        "catchment": "WALLINGTON",
        "supplier": "",
        "value": 34666666.666666664,
        "confidence": "medium",
        "url": "southernwater.co.uk/portsmouth-170m"
      }
    },
    {
      "type": "Feature",
      "geometry": {
        "type": "Point",
        "coordinates": [
          -1.035783,
          50.836876
        ]
      },
      "properties": {
        "site": "Havant",
        "catchment": "LANGSTONE HARBOUR",
        "supplier": "",
        "value": 34666666.666666664,
        "confidence": "medium",
        "url": "southernwater.co.uk/portsmouth-170m"
      }
    },
    {
      "type": "Feature",
      "geometry": {
        "type": "Point",
        "coordinates": [
          -0.872056,
          50.825062
        ]
      },
      "properties": {
        "site": "Emsworth",
        "catchment": "CHICHESTER HARBOUR",
        "supplier": "",
        "value": 34666666.666666664,
        "confidence": "medium",
        "url": "southernwater.co.uk/portsmouth-170m"
      }
    },
    {
      "type": "Feature",
      "geometry": {
        "type": "Point",
        "coordinates": [
          -0.872056,
          50.825062
        ]
      },
      "properties": {
        "site": "Bosham",
        "catchment": "CHICHESTER HARBOUR",
        "supplier": "",
        "value": 3500000.0,
        "confidence": "medium",
        "url": "southernwater.co.uk/chichester"
      }
    },
    {
      "type": "Feature",
      "geometry": {
        "type": "Point",
        "coordinates": [
          -0.872056,
          50.825062
        ]
      },
      "properties": {
        "site": "Thornham",
        "catchment": "CHICHESTER HARBOUR",
        "supplier": "",
        "value": 3500000.0,
        "confidence": "medium",
        "url": "southernwater.co.uk/chichester"
      }
    },
    {
      "type": "Feature",
      "geometry": {
        "type": "Point",
        "coordinates": [
          -0.872056,
          50.825062
        ]
      },
      "properties": {
        "site": "Funtington",
        "catchment": "CHICHESTER HARBOUR",
        "supplier": "",
        "value": 3500000.0,
        "confidence": "medium",
        "url": "southernwater.co.uk/chichester"
      }
    },
    {
      "type": "Feature",
      "geometry": {
        "type": "Point",
        "coordinates": [
          -0.872056,
          50.825062
        ]
      },
      "properties": {
        "site": "Emsworth",
        "catchment": "CHICHESTER HARBOUR",
        "supplier": "",
        "value": 3500000.0,
        "confidence": "medium",
        "url": "southernwater.co.uk/chichester"
      }
    },
    {
      "type": "Feature",
      "geometry": {
        "type": "Point",
        "coordinates": [
          0.80683,
          51.372443
        ]
      },
      "properties": {
        "site": "Queenborough",
        "catchment": "SWALE",
        "supplier": "",
        "value": 600000.0,
        "confidence": "medium",
        "url": "southernwater.co.uk/kent-overflows"
      }
    },
    {
      "type": "Feature",
      "geometry": {
        "type": "Point",
        "coordinates": [
          0.80683,
          51.372443
        ]
      },
      "properties": {
        "site": "Sittingbourne",
        "catchment": "SWALE",
        "supplier": "",
        "value": 600000.0,
        "confidence": "medium",
        "url": "southernwater.co.uk/kent-overflows"
      }
    },
    {
      "type": "Feature",
      "geometry": {
        "type": "Point",
        "coordinates": [
          0.897166,
          51.320395
        ]
      },
      "properties": {
        "site": "Faversham",
        "catchment": "FAVERSHAM CREEK",
        "supplier": "",
        "value": 600000.0,
        "confidence": "medium",
        "url": "southernwater.co.uk/kent-overflows"
      }
    },
    {
      "type": "Feature",
      "geometry": {
        "type": "Point",
        "coordinates": [
          1.196556,
          51.36836
        ]
      },
      "properties": {
        "site": "Herne Bay",
        "catchment": "NORTH SEA",
        "supplier": "",
        "value": 600000.0,
        "confidence": "medium",
        "url": "southernwater.co.uk/kent-overflows"
      }
    },
    {
      "type": "Feature",
      "geometry": {
        "type": "Point",
        "coordinates": [
          1.196556,
          51.36836
        ]
      },
      "properties": {
        "site": "Whitstable",
        "catchment": "NORTH SEA",
        "supplier": "",
        "value": 600000.0,
        "confidence": "medium",
        "url": "southernwater.co.uk/kent-overflows"
      }
    },
    {
      "type": "Feature",
      "geometry": {
        "type": "Point",
        "coordinates": [
          0.431722,
          51.297323
        ]
      },
      "properties": {
        "site": "Tunbridge Wells",
        "catchment": "MEDWAY",
        "supplier": "",
        "value": 0.0,
        "confidence": "medium",
        "url": "southernwater.co.uk/kent-scheme"
      }
    },
    {
      "type": "Feature",
      "geometry": {
        "type": "Point",
        "coordinates": [
          0.431722,
          51.297323
        ]
      },
      "properties": {
        "site": "Bidborough",
        "catchment": "MEDWAY",
        "supplier": "",
        "value": 0.0,
        "confidence": "medium",
        "url": "southernwater.co.uk/kent-scheme"
      }
    },
    {
      "type": "Feature",
      "geometry": {
        "type": "Point",
        "coordinates": [
          0.431722,
          51.297323
        ]
      },
      "properties": {
        "site": "Tonbridge",
        "catchment": "MEDWAY",
        "supplier": "",
        "value": 0.0,
        "confidence": "medium",
        "url": "southernwater.co.uk/kent-scheme"
      }
    },
    {
      "type": "Feature",
      "geometry": {
        "type": "Point",
        "coordinates": [
          -0.211734,
          50.938729
        ]
      },
      "properties": {
        "site": "Burgess Hill",
        "catchment": "ADUR",
        "supplier": "",
        "value": 0.0,
        "confidence": "medium",
        "url": "sussexexpress.co.uk/sussex-storm"
      }
    },
    {
      "type": "Feature",
      "geometry": {
        "type": "Point",
        "coordinates": [
          0.038179,
          50.841103
        ]
      },
      "properties": {
        "site": "Bognor Regis",
        "catchment": "ENGLISH CHANNEL",
        "supplier": "",
        "value": 0.0,
        "confidence": "medium",
        "url": "sussexexpress.co.uk/sussex-storm"
      }
    },
    {
      "type": "Feature",
      "geometry": {
        "type": "Point",
        "coordinates": [
          -0.211734,
          50.938729
        ]
      },
      "properties": {
        "site": "Hurstpierpoint",
        "catchment": "ADUR",
        "supplier": "",
        "value": 0.0,
        "confidence": "medium",
        "url": "sussexexpress.co.uk/sussex-storm"
      }
    },
    {
      "type": "Feature",
      "geometry": {
        "type": "Point",
        "coordinates": [
          0.038179,
          50.841103
        ]
      },
      "properties": {
        "site": "Fairlight",
        "catchment": "ENGLISH CHANNEL",
        "supplier": "",
        "value": 0.0,
        "confidence": "medium",
        "url": "sussexexpress.co.uk/sussex-storm"
      }
    },
    {
      "type": "Feature",
      "geometry": {
        "type": "Point",
        "coordinates": [
          -0.766736,
          50.886775
        ]
      },
      "properties": {
        "site": "Lavant",
        "catchment": "LAVANT",
        "supplier": "",
        "value": 0.0,
        "confidence": "medium",
        "url": "sussexexpress.co.uk/sussex-storm"
      }
    },
    {
      "type": "Feature",
      "geometry": {
        "type": "Point",
        "coordinates": [
          0.431722,
          51.297323
        ]
      },
      "properties": {
        "site": "River Medway area",
        "catchment": "MEDWAY",
        "supplier": "",
        "value": 8000000.0,
        "confidence": "medium",
        "url": "southernwater.co.uk/kent"
      }
    },
    {
      "type": "Feature",
      "geometry": {
        "type": "Point",
        "coordinates": [
          -1.33205,
          51.05592
        ]
      },
      "properties": {
        "site": "Andover",
        "catchment": "TEST",
        "supplier": "",
        "value": 42000000.0,
        "confidence": "medium",
        "url": "constructionnews.co.uk/ALM"
      }
    },
    {
      "type": "Feature",
      "geometry": {
        "type": "Point",
        "coordinates": [
          -1.354391,
          50.951299
        ]
      },
      "properties": {
        "site": "Winchester",
        "catchment": "ITCHEN",
        "supplier": "",
        "value": 42000000.0,
        "confidence": "medium",
        "url": "constructionnews.co.uk/ALM"
      }
    },
    {
      "type": "Feature",
      "geometry": {
        "type": "Point",
        "coordinates": [
          1.196556,
          51.36836
        ]
      },
      "properties": {
        "site": "Swalecliffe",
        "catchment": "NORTH SEA",
        "supplier": "",
        "value": 100000000.0,
        "confidence": "medium",
        "url": "kentonline.co.uk/swalecliffe"
      }
    },
    {
      "type": "Feature",
      "geometry": {
        "type": "Point",
        "coordinates": [
          -1.316821,
          50.677257
        ]
      },
      "properties": {
        "site": "Sandown",
        "catchment": "YAR",
        "supplier": "",
        "value": 19800000.0,
        "confidence": "medium",
        "url": "southernwater.co.uk/iow"
      }
    },
    {
      "type": "Feature",
      "geometry": {
        "type": "Point",
        "coordinates": [
          -1.288858,
          50.682536
        ]
      },
      "properties": {
        "site": "Ryde",
        "catchment": "IOW STREAMS",
        "supplier": "",
        "value": 19800000.0,
        "confidence": "medium",
        "url": "southernwater.co.uk/iow"
      }
    },
    {
      "type": "Feature",
      "geometry": {
        "type": "Point",
        "coordinates": [
          -1.293173,
          50.719228
        ]
      },
      "properties": {
        "site": "Cowes",
        "catchment": "MEDINA",
        "supplier": "",
        "value": 19800000.0,
        "confidence": "medium",
        "url": "southernwater.co.uk/iow"
      }
    },
    {
      "type": "Feature",
      "geometry": {
        "type": "Point",
        "coordinates": [
          -1.293173,
          50.719228
        ]
      },
      "properties": {
        "site": "Newport",
        "catchment": "MEDINA",
        "supplier": "",
        "value": 19800000.0,
        "confidence": "medium",
        "url": "southernwater.co.uk/iow"
      }
    },
    {
      "type": "Feature",
      "geometry": {
        "type": "Point",
        "coordinates": [
          -1.288858,
          50.682536
        ]
      },
      "properties": {
        "site": "Calbourne",
        "catchment": "IOW STREAMS",
        "supplier": "",
        "value": 19800000.0,
        "confidence": "medium",
        "url": "southernwater.co.uk/iow"
      }
    },
    {
      "type": "Feature",
      "geometry": {
        "type": "Point",
        "coordinates": [
          0.038179,
          50.841103
        ]
      },
      "properties": {
        "site": "Eastney",
        "catchment": "ENGLISH CHANNEL",
        "supplier": "",
        "value": 34333333.333333336,
        "confidence": "medium",
        "url": "portsmouth.co.uk/103m"
      }
    },
    {
      "type": "Feature",
      "geometry": {
        "type": "Point",
        "coordinates": [
          -1.129927,
          50.823045
        ]
      },
      "properties": {
        "site": "Fort Cumberland",
        "catchment": "PORTSMOUTH HARBOUR",
        "supplier": "",
        "value": 34333333.333333336,
        "confidence": "medium",
        "url": "portsmouth.co.uk/103m"
      }
    },
    {
      "type": "Feature",
      "geometry": {
        "type": "Point",
        "coordinates": [
          -1.035783,
          50.836876
        ]
      },
      "properties": {
        "site": "Budds Farm",
        "catchment": "LANGSTONE HARBOUR",
        "supplier": "",
        "value": 34333333.333333336,
        "confidence": "medium",
        "url": "portsmouth.co.uk/103m"
      }
    },
    {
      "type": "Feature",
      "geometry": {
        "type": "Point",
        "coordinates": [
          -0.51187,
          50.945046
        ]
      },
      "properties": {
        "site": "Littlehampton",
        "catchment": "ARUN",
        "supplier": "",
        "value": 0.0,
        "confidence": "medium",
        "url": "havantmatters.org/littlehampton"
      }
    },
    {
      "type": "Feature",
      "geometry": {
        "type": "Point",
        "coordinates": [
          -0.51187,
          50.945046
        ]
      },
      "properties": {
        "site": "Ford",
        "catchment": "ARUN",
        "supplier": "",
        "value": 0.0,
        "confidence": "medium",
        "url": "havantmatters.org/littlehampton"
      }
    },
    {
      "type": "Feature",
      "geometry": {
        "type": "Point",
        "coordinates": [
          -1.33205,
          51.05592
        ]
      },
      "properties": {
        "site": "Southampton Link Main",
        "catchment": "TEST",
        "supplier": "",
        "value": 50000000.0,
        "confidence": "medium",
        "url": "smartwatermagazine.com/SLM"
      }
    },
    {
      "type": "Feature",
      "geometry": {
        "type": "Point",
        "coordinates": [
          -1.354391,
          50.951299
        ]
      },
      "properties": {
        "site": "Otterbourne",
        "catchment": "ITCHEN",
        "supplier": "",
        "value": 50000000.0,
        "confidence": "medium",
        "url": "smartwatermagazine.com/SLM"
      }
    },
    {
      "type": "Feature",
      "geometry": {
        "type": "Point",
        "coordinates": [
          -1.505014,
          50.847241
        ]
      },
      "properties": {
        "site": "Lyndhurst",
        "catchment": "BEAULIEU",
        "supplier": "",
        "value": 10000000.0,
        "confidence": "medium",
        "url": "southernwater.co.uk/new-forest"
      }
    },
    {
      "type": "Feature",
      "geometry": {
        "type": "Point",
        "coordinates": [
          -1.55641,
          50.773721
        ]
      },
      "properties": {
        "site": "Sway",
        "catchment": "LYMINGTON",
        "supplier": "",
        "value": 10000000.0,
        "confidence": "medium",
        "url": "southernwater.co.uk/new-forest"
      }
    },
    {
      "type": "Feature",
      "geometry": {
        "type": "Point",
        "coordinates": [
          -1.55641,
          50.773721
        ]
      },
      "properties": {
        "site": "Pennington",
        "catchment": "LYMINGTON",
        "supplier": "",
        "value": 10000000.0,
        "confidence": "medium",
        "url": "southernwater.co.uk/new-forest"
      }
    },
    {
      "type": "Feature",
      "geometry": {
        "type": "Point",
        "coordinates": [
          0.038179,
          50.841103
        ]
      },
      "properties": {
        "site": "Pagham",
        "catchment": "ENGLISH CHANNEL",
        "supplier": "",
        "value": 21000000.0,
        "confidence": "medium",
        "url": "southernwater.co.uk/pagham"
      }
    },
    {
      "type": "Feature",
      "geometry": {
        "type": "Point",
        "coordinates": [
          -0.678163,
          50.811851
        ]
      },
      "properties": {
        "site": "Bognor Regis",
        "catchment": "ALDINGBOURNE",
        "supplier": "",
        "value": 4000000.0,
        "confidence": "medium",
        "url": "watermagazine.co.uk/bognor"
      }
    },
    {
      "type": "Feature",
      "geometry": {
        "type": "Point",
        "coordinates": [
          0.038179,
          50.841103
        ]
      },
      "properties": {
        "site": "Bexhill and Hastings",
        "catchment": "ENGLISH CHANNEL",
        "supplier": "",
        "value": 41400000.0,
        "confidence": "medium",
        "url": "southernwater.co.uk/hastings"
      }
    },
    {
      "type": "Feature",
      "geometry": {
        "type": "Point",
        "coordinates": [
          0.038179,
          50.841103
        ]
      },
      "properties": {
        "site": "Rock-a-Nore",
        "catchment": "ENGLISH CHANNEL",
        "supplier": "",
        "value": 4650000.0,
        "confidence": "medium",
        "url": "southernwater.co.uk/hastings-pumps"
      }
    },
    {
      "type": "Feature",
      "geometry": {
        "type": "Point",
        "coordinates": [
          0.038179,
          50.841103
        ]
      },
      "properties": {
        "site": "Galley Hill",
        "catchment": "ENGLISH CHANNEL",
        "supplier": "",
        "value": 4650000.0,
        "confidence": "medium",
        "url": "southernwater.co.uk/hastings-pumps"
      }
    },
    {
      "type": "Feature",
      "geometry": {
        "type": "Point",
        "coordinates": [
          -1.280334,
          50.907129
        ]
      },
      "properties": {
        "site": "Bursledon",
        "catchment": "HAMBLE",
        "supplier": "",
        "value": 3400000.0,
        "confidence": "medium",
        "url": "southernwater.co.uk/hamble"
      }
    },
    {
      "type": "Feature",
      "geometry": {
        "type": "Point",
        "coordinates": [
          1.301696,
          51.133328
        ]
      },
      "properties": {
        "site": "Dover",
        "catchment": "DOUR",
        "supplier": "",
        "value": 62000000.0,
        "confidence": "medium",
        "url": "dover-kent.com/dover-folkestone"
      }
    },
    {
      "type": "Feature",
      "geometry": {
        "type": "Point",
        "coordinates": [
          0.038179,
          50.841103
        ]
      },
      "properties": {
        "site": "Folkestone",
        "catchment": "ENGLISH CHANNEL",
        "supplier": "",
        "value": 62000000.0,
        "confidence": "medium",
        "url": "dover-kent.com/dover-folkestone"
      }
    },
    {
      "type": "Feature",
      "geometry": {
        "type": "Point",
        "coordinates": [
          0.641181,
          51.164233
        ]
      },
      "properties": {
        "site": "Beult catchment",
        "catchment": "BEULT",
        "supplier": "",
        "value": 3000000.0,
        "confidence": "medium",
        "url": "southernwater.co.uk/beult"
      }
    },
    {
      "type": "Feature",
      "geometry": {
        "type": "Point",
        "coordinates": [
          0.038179,
          50.841103
        ]
      },
      "properties": {
        "site": "Peacehaven",
        "catchment": "ENGLISH CHANNEL",
        "supplier": "",
        "value": 300000000.0,
        "confidence": "medium",
        "url": "brightonandhovenews.org/peacehaven"
      }
    },
    {
      "type": "Feature",
      "geometry": {
        "type": "Point",
        "coordinates": [
          -1.129927,
          50.823045
        ]
      },
      "properties": {
        "site": "Eastney",
        "catchment": "PORTSMOUTH HARBOUR",
        "supplier": "COSTAIN LIMITED",
        "value": 10000000.0,
        "confidence": "medium",
        "url": "constructionnews.co.uk/portsmouth"
      }
    },
    {
      "type": "Feature",
      "geometry": {
        "type": "Point",
        "coordinates": [
          -1.129927,
          50.823045
        ]
      },
      "properties": {
        "site": "Fort Cumberland",
        "catchment": "PORTSMOUTH HARBOUR",
        "supplier": "COSTAIN LIMITED",
        "value": 10000000.0,
        "confidence": "medium",
        "url": "constructionnews.co.uk/portsmouth"
      }
    },
    {
      "type": "Feature",
      "geometry": {
        "type": "Point",
        "coordinates": [
          0.371807,
          51.444644
        ]
      },
      "properties": {
        "site": "Gravesend",
        "catchment": "THAMES",
        "supplier": "COSTAIN LIMITED",
        "value": 2400000.0,
        "confidence": "medium",
        "url": "colemanconstructiongroup.co.uk/gravesend"
      }
    },
    {
      "type": "Feature",
      "geometry": {
        "type": "Point",
        "coordinates": [
          -1.330391,
          50.848213
        ]
      },
      "properties": {
        "site": "Slowhill Copse",
        "catchment": "SOUTHAMPTON WATER",
        "supplier": "Galliford Try Construction Limited",
        "value": 18000000.0,
        "confidence": "medium",
        "url": "watermagazine.co.uk/slowhill-copse"
      }
    },
    {
      "type": "Feature",
      "geometry": {
        "type": "Point",
        "coordinates": [
          0.431722,
          51.297323
        ]
      },
      "properties": {
        "site": "Aylesford",
        "catchment": "MEDWAY",
        "supplier": "",
        "value": 0.0,
        "confidence": "medium",
        "url": "southernwater.co.uk/aylesford"
      }
    },
    {
      "type": "Feature",
      "geometry": {
        "type": "Point",
        "coordinates": [
          0.068081,
          50.959937
        ]
      },
      "properties": {
        "site": "Lewes",
        "catchment": "OUSE",
        "supplier": "",
        "value": 18500000.0,
        "confidence": "medium",
        "url": "southernwater.co.uk/east-sussex"
      }
    },
    {
      "type": "Feature",
      "geometry": {
        "type": "Point",
        "coordinates": [
          0.068081,
          50.959937
        ]
      },
      "properties": {
        "site": "Newhaven",
        "catchment": "OUSE",
        "supplier": "",
        "value": 18500000.0,
        "confidence": "medium",
        "url": "southernwater.co.uk/east-sussex"
      }
    },
    {
      "type": "Feature",
      "geometry": {
        "type": "Point",
        "coordinates": [
          0.371807,
          51.444644
        ]
      },
      "properties": {
        "site": "Northfleet",
        "catchment": "THAMES",
        "supplier": "",
        "value": 0.0,
        "confidence": "medium",
        "url": "southernwater.co.uk/kent"
      }
    },
    {
      "type": "Feature",
      "geometry": {
        "type": "Point",
        "coordinates": [
          0.068081,
          50.959937
        ]
      },
      "properties": {
        "site": "Ringmer",
        "catchment": "OUSE",
        "supplier": "Galliford Try Construction Limited",
        "value": 0.0,
        "confidence": "medium",
        "url": "lewes-eastbourne.gov.uk/ringmer"
      }
    },
    {
      "type": "Feature",
      "geometry": {
        "type": "Point",
        "coordinates": [
          0.431722,
          51.297323
        ]
      },
      "properties": {
        "site": "Kent WWTW",
        "catchment": "MEDWAY",
        "supplier": "",
        "value": 1000000.0,
        "confidence": "medium",
        "url": "southernwater.co.uk/kent-storm-tank"
      }
    }
  ]
}